NORAD_CAT_ID,OBJECT_NAME,OBJECT_TYPE,EPOCH,MEAN_MOTION,ECCENTRICITY,INCLINATION,RA_OF_ASC_NODE,ARG_OF_PERICENTER,MEAN_ANOMALY,BSTAR,MEAN_MOTION_DOT,MEAN_MOTION_DDOT,TLE_LINE0,TLE_LINE1,TLE_LINE2,SEMIMAJOR_AXIS,PERIOD,APOGEE,PERIGEE,DECAYED
53603.0,STARLINK-4692,PAYLOAD,2023-08-24 00:15:07,15.08843159,0.0001413,53.2173,88.2958,86.5168,273.5986,5.5302e-05,5.92e-06,0.0,0 STARLINK-4692,1 53603U 22104R   23236.01050101  .00000592  00000-0  55302-4 0  9995,2 53603  53.2173  88.2958 0001413  86.5168 273.5986 15.08843159 55489,6917.871,95.437,540.713,538.758,0.0
53603.0,STARLINK-4692,PAYLOAD,2023-08-25 00:05:54,15.08839164,0.00014,53.2177,83.8352,85.3286,274.7866,1.83e-05,3e-08,0.0,0 STARLINK-4692,1 53603U 22104R   23237.00410576  .00000003  00000-0  18300-4 0  9995,2 53603  53.2177  83.8352 0001400  85.3286 274.7866 15.08839164 54947,6917.883,95.438,540.716,538.779,0.0
53603.0,STARLINK-4692,PAYLOAD,2023-08-25 19:10:32,15.08840291,0.000136,53.2176,80.2669,94.325,265.7897,3.954e-05,3.41e-06,0.0,0 STARLINK-4692,1 53603U 22104R   23237.79898526  .00000341  00000-0  39540-4 0  9990,2 53603  53.2176  80.2669 0001360  94.3250 265.7897 15.08840291 55751,6917.879,95.438,540.685,538.804,0.0
53603.0,STARLINK-4692,PAYLOAD,2023-08-25 23:56:41,15.0884384,0.0001334,53.2176,79.3746,91.6969,268.4176,6.3648e-05,7.25e-06,0.0,0 STARLINK-4692,1 53603U 22104R   23237.99770215  .00000725  00000-0  63648-4 0  9998,2 53603  53.2176  79.3746 0001334  91.6969 268.4176 15.08843840 55780,6917.869,95.437,540.656,538.811,0.0
53603.0,STARLINK-4692,PAYLOAD,2023-08-26 17:25:56,15.08834922,0.0001612,53.2191,76.1045,108.3527,251.764,4.1883e-05,3.79e-06,0.0,0 STARLINK-4692,1 53603U 22104R   23238.72634938  .00000379  00000-0  41883-4 0  9993,2 53603  53.2191  76.1045 0001612 108.3527 251.7640 15.08834922 55208,6917.896,95.438,540.876,538.646,0.0
53603.0,STARLINK-4692,PAYLOAD,2023-08-26 20:36:42,15.08837207,0.0001345,53.2173,75.5106,84.1553,275.9592,6.6629e-05,7.73e-06,0.0,0 STARLINK-4692,1 53603U 22104R   23238.85882865  .00000773  00000-0  66629-4 0  9994,2 53603  53.2173  75.5106 0001345  84.1553 275.9592 15.08837207 55913,6917.889,95.438,540.684,538.823,0.0
53603.0,STARLINK-4692,PAYLOAD,2023-08-27 20:27:29,15.08846107,0.0001312,53.2177,71.0498,80.994,279.12,6.2492e-05,7.07e-06,0.0,0 STARLINK-4692,1 53603U 22104R   23239.85242477  .00000707  00000-0  62492-4 0  9995,2 53603  53.2177  71.0498 0001312  80.9940 279.1200 15.08846107 56068,6917.862,95.437,540.634,538.819,0.0
53603.0,STARLINK-4692,PAYLOAD,2023-08-27 22:02:52,15.08847177,0.0001254,53.2177,70.7518,85.7625,274.351,6.3571e-05,7.24e-06,0.0,0 STARLINK-4692,1 53603U 22104R   23239.91866356  .00000724  00000-0  63571-4 0  9998,2 53603  53.2177  70.7518 0001254  85.7625 274.3510 15.08847177 55388,6917.858,95.437,540.591,538.856,0.0
53603.0,STARLINK-4692,PAYLOAD,2023-08-28 05:59:49,15.08828718,0.0001372,53.2178,69.2657,84.197,275.9178,-8.9429e-05,-1.71e-05,0.0,0 STARLINK-4692,1 53603U 22104R   23240.24988021 -.00001710  00000-0 -89429-4 0  9998,2 53603  53.2178  69.2657 0001372  84.1970 275.9178 15.08828718 55436,6917.915,95.438,540.729,538.831,0.0
53603.0,STARLINK-4692,PAYLOAD,2023-08-28 18:42:57,15.08802374,0.0001581,53.2175,66.8878,84.6655,275.4517,-0.00022235,-3.821e-05,0.0,0 STARLINK-4692,1 53603U 22104R   23240.77983212 -.00003821  00000-0 -22235-3 0  9999,2 53603  53.2175  66.8878 0001581  84.6655 275.4517 15.08802374 55519,6917.995,95.44,540.954,538.767,0.0
53603.0,STARLINK-4692,PAYLOAD,2023-08-28 21:53:41,15.08830044,0.0001449,53.218,66.2923,73.924,286.1912,1.9197e-05,1.8e-07,0.0,0 STARLINK-4692,1 53603U 22104R   23240.91228990  .00000018  00000-0  19197-4 0  9997,2 53603  53.2180  66.2923 0001449  73.9240 286.1912 15.08830044 55539,6917.911,95.438,540.778,538.773,0.0
53603.0,STARLINK-4692,PAYLOAD,2023-08-29 16:58:18,15.08849618,0.0001126,53.2188,62.7246,53.9538,306.1558,9.5934e-05,1.24e-05,0.0,0 STARLINK-4692,1 53603U 22104R   23241.70715739  .00001240  00000-0  95934-4 0  9998,2 53603  53.2188  62.7246 0001126  53.9538 306.1558 15.08849618 55655,6917.851,95.437,540.495,538.937,0.0
53603.0,STARLINK-4692,PAYLOAD,2023-08-29 18:33:41,15.08853644,0.0001314,53.2175,62.426,102.5456,257.5684,0.00013963,1.936e-05,0.0,0 STARLINK-4692,1 53603U 22104R   23241.77339157  .00001936  00000-0  13963-3 0  9994,2 53603  53.2175  62.4260 0001314 102.5456 257.5684 15.08853644 56354,6917.839,95.437,540.613,538.795,0.0
53603.0,STARLINK-4692,PAYLOAD,2023-08-30 07:16:45,15.0885418,0.000156,53.2162,60.0489,81.8879,278.229,0.00016494,2.339e-05,0.0,0 STARLINK-4692,1 53603U 22104R   23242.30330922  .00002339  00000-0  16494-3 0  9995,2 53603  53.2162  60.0489 0001560  81.8879 278.2290 15.08854180 55749,6917.837,95.437,540.781,538.623,0.0
53603.0,STARLINK-4692,PAYLOAD,2023-08-30 18:24:28,15.08837614,0.0001316,53.2171,57.9656,95.069,265.0453,0.00046872,7.179e-05,0.0,0 STARLINK-4692,1 53603U 22104R   23242.76699484  .00007179  00000-0  46872-3 0  9996,2 53603  53.2171  57.9656 0001316  95.0690 265.0453 15.08837614 56500,6917.888,95.438,540.663,538.842,0.0
53603.0,STARLINK-4692,PAYLOAD,2023-08-31 11:53:43,15.08845961,0.000111,53.2181,54.6972,84.4833,275.6286,-8.6323e-05,-1.662e-05,0.0,0 STARLINK-4692,1 53603U 22104R   23243.49564025 -.00001662  00000-0 -86323-4 0  9998,2 53603  53.2181  54.6972 0001110  84.4833 275.6286 15.08845961 55929,6917.862,95.437,540.495,538.959,0.0
53603.0,STARLINK-4692,PAYLOAD,2023-09-01 11:44:29,15.08846618,7.8e-05,53.2193,50.2369,57.6876,302.4192,-1.2158e-05,-4.81e-06,0.0,0 STARLINK-4692,1 53603U 22104R   23244.48923270 -.00000481  00000-0 -12158-4 0  9992,2 53603  53.2193  50.2369 0000780  57.6876 302.4192 15.08846618 56763,6917.86,95.437,540.265,539.186,0.0
53603.0,STARLINK-4692,PAYLOAD,2023-09-01 18:06:02,15.08842007,0.0001288,53.2185,49.047,92.1192,267.9948,0.00012602,1.718e-05,0.0,0 STARLINK-4692,1 53603U 22104R   23244.75419394  .00001718  00000-0  12602-3 0  9994,2 53603  53.2185  49.0470 0001288  92.1192 267.9948 15.08842007 56113,6917.874,95.437,540.63,538.848,0.0
53603.0,STARLINK-4692,PAYLOAD,2023-09-02 11:35:17,15.08832754,0.0001311,53.2177,45.775,96.033,264.0811,7.5781e-05,9.18e-06,0.0,0 STARLINK-4692,1 53603U 22104R   23245.48283834  .00000918  00000-0  75781-4 0  9992,2 53603  53.2177  45.7750 0001311  96.0330 264.0811 15.08832754 56915,6917.903,95.438,540.674,538.861,0.0
53603.0,STARLINK-4692,PAYLOAD,2023-09-02 17:56:49,15.08835086,0.0001106,53.2187,44.5863,94.154,265.9579,6.1293e-05,6.88e-06,0.0,0 STARLINK-4692,1 53603U 22104R   23245.74779793  .00000688  00000-0  61293-4 0  9992,2 53603  53.2187  44.5863 0001106  94.1540 265.9579 15.08835086 56262,6917.895,95.438,540.526,538.995,0.0
53603.0,STARLINK-4692,PAYLOAD,2023-09-02 19:32:12,15.08839714,0.0001057,53.2196,44.2888,92.1797,267.9316,0.00010226,1.34e-05,0.0,0 STARLINK-4692,1 53603U 22104R   23245.81403482  .00001340  00000-0  10226-3 0  9994,2 53603  53.2196  44.2888 0001057  92.1797 267.9316 15.08839714 56963,6917.881,95.438,540.477,539.015,0.0
53603.0,STARLINK-4692,PAYLOAD,2023-09-03 11:26:04,15.08841683,0.0001199,53.2193,41.3148,92.7888,267.3241,8.3357e-05,1.039e-05,0.0,0 STARLINK-4692,1 53603U 22104R   23246.47643582  .00001039  00000-0  83357-4 0  9995,2 53603  53.2193  41.3148 0001199  92.7888 267.3241 15.08841683 57062,6917.875,95.437,540.57,538.911,0.0
53603.0,STARLINK-4692,PAYLOAD,2023-09-03 20:58:22,15.08848418,0.000127,53.2188,39.5304,91.0198,269.094,0.00017546,2.506e-05,0.0,0 STARLINK-4692,1 53603U 22104R   23246.87386959  .00002506  00000-0  17546-3 0  9997,2 53603  53.2188  39.5304 0001270  91.0198 269.0940 15.08848418 56433,6917.855,95.437,540.598,538.841,0.0
53603.0,STARLINK-4692,PAYLOAD,2023-09-04 09:41:28,15.08834272,0.0001365,53.2154,37.1479,78.8216,281.2929,0.0001363,1.882e-05,0.0,0 STARLINK-4692,1 53603U 22104R   23247.40379926  .00001882  00000-0  13630-3 0  9999,2 53603  53.2154  37.1479 0001365  78.8216 281.2929 15.08834272 56517,6917.898,95.438,540.707,538.819,0.0
53603.0,STARLINK-4692,PAYLOAD,2023-09-04 11:16:51,15.08833907,0.0001374,53.2154,36.8505,79.1966,280.9181,0.00012058,1.631e-05,0.0,0 STARLINK-4692,1 53603U 22104R   23247.47003944  .00001631  00000-0  12058-3 0  9995,2 53603  53.2154  36.8505 0001374  79.1966 280.9181 15.08833907 57217,6917.899,95.438,540.715,538.813,0.0
53603.0,STARLINK-4692,PAYLOAD,2023-09-05 09:32:15,15.08841564,0.0001076,53.2187,32.6905,85.062,275.0495,0.00010607,1.401e-05,0.0,0 STARLINK-4692,1 53603U 22104R   23248.39739842  .00001401  00000-0  10607-3 0  9993,2 53603  53.2187  32.6905 0001076  85.0620 275.0495 15.08841564 57359,6917.876,95.437,540.485,538.996,0.0
53603.0,STARLINK-4692,PAYLOAD,2023-09-05 15:53:47,15.08843468,0.0001068,53.2178,31.5011,82.7865,277.3249,0.00013745,1.901e-05,0.0,0 STARLINK-4692,1 53603U 22104R   23248.66235604  .00001901  00000-0  13745-3 0  9991,2 53603  53.2178  31.5011 0001068  82.7865 277.3249 15.08843468 56706,6917.87,95.437,540.474,538.996,0.0
53603.0,STARLINK-4692,PAYLOAD,2023-09-06 09:23:02,15.08836441,0.000105,53.2182,28.2309,80.4975,279.6136,0.00032961,4.961e-05,0.0,0 STARLINK-4692,1 53603U 22104R   23249.39100169  .00004961  00000-0  32961-3 0  9999,2 53603  53.2182  28.2309 0001050  80.4975 279.6136 15.08836441 57504,6917.891,95.438,540.483,539.03,0.0
53603.0,STARLINK-4692,PAYLOAD,2023-09-06 18:55:20,15.0884907,0.0001066,53.2166,26.446,74.5364,285.5746,0.00017021,2.423e-05,0.0,0 STARLINK-4692,1 53603U 22104R   23249.78843329  .00002423  00000-0  17021-3 0  9995,2 53603  53.2166  26.4460 0001066  74.5364 285.5746 15.08849070 57568,6917.853,95.437,540.455,538.98,0.0
53603.0,STARLINK-4692,PAYLOAD,2023-09-07 09:13:49,15.08841303,0.0001392,53.2161,23.7688,87.5854,272.5298,6.0069e-05,6.68e-06,0.0,0 STARLINK-4692,1 53603U 22104R   23250.38459753  .00000668  00000-0  60069-4 0  9997,2 53603  53.2161  23.7688 0001392  87.5854 272.5298 15.08841303 56967,6917.876,95.437,540.704,538.778,0.0
